CCSDS_OMM_VERS,COMMENT,CREATION_DATE,ORIGINATOR,OBJECT_NAME,OBJECT_ID,CENTER_NAME,REF_FRAME,TIME_SYSTEM,MEAN_ELEMENT_THEORY,EPOCH,MEAN_MOTION,ECCENTRICITY,INCLINATION,RA_OF_ASC_NODE,ARG_OF_PERICENTER,MEAN_ANOMALY,EPHEMERIS_TYPE,CLASSIFICATION_TYPE,NORAD_CAT_ID,ELEMENT_SET_NO,REV_AT_EPOCH,BSTAR,MEAN_MOTION_DOT,MEAN_MOTION_DDOT,SEMIMAJOR_AXIS,PERIOD,APOAPSIS,PERIAPSIS,OBJECT_TYPE,RCS_SIZE,COUNTRY_CODE,LAUNCH_DATE,SITE,DECAY_DATE,FILE,GP_ID,TLE_LINE0,TLE_LINE1,TLE_LINE2
2.0,GENERATED VIA SPACE-TRACK.ORG API,2022-08-20T09:16:12,18 SPCS,STARLINK-4157,2022-076BB,EARTH,TEME,UTC,SGP4,2022-08-20T08:00:01.000224,15.73129229,0.0002311,53.2156,162.8672,21.8879,273.387,0,U,53035,999,737,0.00023782,0.00032788,0.0,6728.097,91.537,351.517,348.407,PAYLOAD,LARGE,US,2022-07-07,AFETR,,3541004,210556432,0 STARLINK-4157,1 53035U 22076BB  22232.33334491  .00032788  00000-0  23782-3 0  9997,2 53035  53.2156 162.8672 0002311  21.8879 273.3870 15.73129229  7372
2.0,GENERATED VIA SPACE-TRACK.ORG API,2022-08-20T09:16:12,18 SPCS,STARLINK-4167,2022-076AZ,EARTH,TEME,UTC,SGP4,2022-08-20T08:00:01.000224,15.73148761,0.0002146,53.2157,162.8699,23.9204,270.1684,0,U,53033,999,739,0.00029549,0.00040963,0.0,6728.041,91.536,351.35,348.462,PAYLOAD,LARGE,US,2022-07-07,AFETR,,3541004,210556576,0 STARLINK-4167,1 53033U 22076AZ  22232.33334491  .00040963  00000-0  29549-3 0  9996,2 53033  53.2157 162.8699 0002146  23.9204 270.1684 15.73148761  7393
2.0,GENERATED VIA SPACE-TRACK.ORG API,2022-08-20T09:06:13,18 SPCS,STARLINK-3517,2022-016X,EARTH,TEME,UTC,SGP4,2022-08-20T08:00:01.000224,15.08802643,0.0001391,53.2188,23.1839,68.9227,213.327,0,U,51735,999,2882,0.0029875,0.0004753,0.0,6917.995,95.44,540.822,538.897,PAYLOAD,LARGE,US,2022-02-21,AFETR,,3540990,210556090,0 STARLINK-3517,1 51735U 22016X   22232.33334491  .00047530  00000-0  29875-2 0  9995,2 51735  53.2188  23.1839 0001391  68.9227 213.3270 15.08802643 28829
2.0,GENERATED VIA SPACE-TRACK.ORG API,2022-08-20T09:16:12,18 SPCS,STARLINK-4115,2022-076AY,EARTH,TEME,UTC,SGP4,2022-08-20T08:00:01.000224,15.73185003,0.00025,53.2164,162.8694,18.4196,273.2699,0,U,53032,999,739,-0.00026392,-0.00037479,0.0,6727.938,91.534,351.485,348.121,PAYLOAD,LARGE,US,2022-07-07,AFETR,,3541004,210556436,0 STARLINK-4115,1 53032U 22076AY  22232.33334491 -.00037479  00000-0 -26392-3 0  9998,2 53032  53.2164 162.8694 0002500  18.4196 273.2699 15.73185003  7398
2.0,GENERATED VIA SPACE-TRACK.ORG API,2022-08-20T09:16:12,18 SPCS,STARLINK-4160,2022-076AW,EARTH,TEME,UTC,SGP4,2022-08-20T08:00:01.000224,15.73202836,0.0001555,53.217,162.8735,31.0949,259.9715,0,U,53030,999,739,-0.00030048,-0.00042584,0.0,6727.887,91.533,350.798,348.706,PAYLOAD,LARGE,US,2022-07-07,AFETR,,3541004,210556437,0 STARLINK-4160,1 53030U 22076AW  22232.33334491 -.00042584  00000-0 -30048-3 0  9992,2 53030  53.2170 162.8735 0001555  31.0949 259.9715 15.73202836  7399
2.0,GENERATED VIA SPACE-TRACK.ORG API,2022-08-20T09:16:12,18 SPCS,STARLINK-4143,2022-076AV,EARTH,TEME,UTC,SGP4,2022-08-20T08:00:01.000224,15.73141967,0.0002271,53.2155,162.8719,21.7758,271.0927,0,U,53029,999,739,0.00011067,0.00014901,0.0,6728.061,91.537,351.454,348.398,PAYLOAD,LARGE,US,2022-07-07,AFETR,,3541002,210556563,0 STARLINK-4143,1 53029U 22076AV  22232.33334491  .00014901  00000-0  11067-3 0  9990,2 53029  53.2155 162.8719 0002271  21.7758 271.0927 15.73141967  7399
2.0,GENERATED VIA SPACE-TRACK.ORG API,2022-08-20T09:06:13,18 SPCS,STARLINK-3861,2022-049BE,EARTH,TEME,UTC,SGP4,2022-08-20T08:00:01.000224,15.37305331,0.0001106,53.2174,104.4695,79.7129,321.7264,0,U,52503,999,1681,-0.031432,-0.01070271,0.0,6832.219,93.67,454.839,453.328,PAYLOAD,LARGE,US,2022-05-06,AFETR,,3540995,210556150,0 STARLINK-3861,1 52503U 22049BE  22232.33334491 -.01070271  00000-0 -31432-1 0  9997,2 52503  53.2174 104.4695 0001106  79.7129 321.7264 15.37305331 16813
2.0,GENERATED VIA SPACE-TRACK.ORG API,2022-08-20T09:16:12,18 SPCS,STARLINK-4158,2022-076AT,EARTH,TEME,UTC,SGP4,2022-08-20T08:00:01.000224,15.73149759,0.000176,53.2154,162.8725,27.615,264.6424,0,U,53027,999,739,0.00044981,0.00062847,0.0,6728.038,91.536,351.088,348.719,PAYLOAD,LARGE,US,2022-07-07,AFETR,,3541002,210556570,0 STARLINK-4158,1 53027U 22076AT  22232.33334491  .00062847  00000-0  44981-3 0  9991,2 53027  53.2154 162.8725 0001760  27.6150 264.6424 15.73149759  7393
2.0,GENERATED VIA SPACE-TRACK.ORG API,2022-08-20T09:16:12,18 SPCS,STARLINK-4119,2022-076AS,EARTH,TEME,UTC,SGP4,2022-08-20T08:00:01.000224,15.73199343,0.0002331,53.2169,162.8811,25.2106,262.2748,0,U,53026,999,739,-0.0002891,-0.00041002,0.0,6727.897,91.533,351.33,348.194,PAYLOAD,LARGE,US,2022-07-07,AFETR,,3541002,210556421,0 STARLINK-4119,1 53026U 22076AS  22232.33334491 -.00041002  00000-0 -28910-3 0  9996,2 53026  53.2169 162.8811 0002331  25.2106 262.2748 15.73199343  7391
2.0,GENERATED VIA SPACE-TRACK.ORG API,2022-08-20T09:06:13,18 SPCS,STARLINK-3448,2022-016Q,EARTH,TEME,UTC,SGP4,2022-08-20T08:00:01.000224,15.08785646,0.0001581,53.2186,23.1677,61.751,140.5259,0,U,51728,999,2884,0.0027284,0.00043337,0.0,6918.047,95.441,541.005,538.818,PAYLOAD,LARGE,US,2022-02-21,AFETR,,3540990,210556097,0 STARLINK-3448,1 51728U 22016Q   22232.33334491  .00043337  00000-0  27284-2 0  9990,2 51728  53.2186  23.1677 0001581  61.7510 140.5259 15.08785646 28849
2.0,GENERATED VIA SPACE-TRACK.ORG API,2022-08-20T09:16:12,18 SPCS,STARLINK-4218,2022-076AR,EARTH,TEME,UTC,SGP4,2022-08-20T08:00:01.000224,15.73143163,0.0002237,53.2171,162.8755,18.7302,271.7201,0,U,53025,999,739,0.00043724,0.00061045,0.0,6728.057,91.536,351.427,348.417,PAYLOAD,LARGE,US,2022-07-07,AFETR,,3541002,210556424,0 STARLINK-4218,1 53025U 22076AR  22232.33334491  .00061045  00000-0  43724-3 0  9992,2 53025  53.2171 162.8755 0002237  18.7302 271.7201 15.73143163  7398
2.0,GENERATED VIA SPACE-TRACK.ORG API,2022-08-20T09:06:13,18 SPCS,STARLINK-3532,2022-016P,EARTH,TEME,UTC,SGP4,2022-08-20T08:00:01.000224,15.08789865,0.0001347,53.2169,33.1715,57.6756,309.5888,0,U,51727,999,2862,0.0034398,0.00054807,0.0,6918.034,95.441,540.83,538.967,PAYLOAD,LARGE,US,2022-02-21,AFETR,,3540989,210556303,0 STARLINK-3532,1 51727U 22016P   22232.33334491  .00054807  00000-0  34398-2 0  9997,2 51727  53.2169  33.1715 0001347  57.6756 309.5888 15.08789865 28627
2.0,GENERATED VIA SPACE-TRACK.ORG API,2022-08-20T09:16:12,18 SPCS,STARLINK-4284,2022-076AP,EARTH,TEME,UTC,SGP4,2022-08-20T08:00:01.000224,15.73120978,0.0002194,53.2155,162.8785,24.8436,264.477,0,U,53023,999,739,0.00021339,0.00029333,0.0,6728.12,91.538,351.462,348.509,PAYLOAD,LARGE,US,2022-07-07,AFETR,,3541002,210556428,0 STARLINK-4284,1 53023U 22076AP  22232.33334491  .00029333  00000-0  21339-3 0  9992,2 53023  53.2155 162.8785 0002194  24.8436 264.4770 15.73120978  7398
2.0,GENERATED VIA SPACE-TRACK.ORG API,2022-08-20T09:16:12,18 SPCS,STARLINK-4216,2022-076AN,EARTH,TEME,UTC,SGP4,2022-08-20T08:00:01.000224,15.73165244,0.0002363,53.2171,162.8846,18.0421,268.2265,0,U,53022,999,739,0.00045818,0.00064083,0.0,6727.994,91.535,351.449,348.269,PAYLOAD,LARGE,US,2022-07-07,AFETR,,3541002,210556427,0 STARLINK-4216,1 53022U 22076AN  22232.33334491  .00064083  00000-0  45818-3 0  9990,2 53022  53.2171 162.8846 0002363  18.0421 268.2265 15.73165244  7396
2.0,GENERATED VIA SPACE-TRACK.ORG API,2022-08-20T09:16:12,18 SPCS,STARLINK-4203,2022-076AM,EARTH,TEME,UTC,SGP4,2022-08-20T08:00:01.000224,15.73198855,0.000268,53.2154,162.8807,17.3736,270.7256,0,U,53021,999,739,-0.00025504,-0.00036266,0.0,6727.898,91.533,351.567,347.96,PAYLOAD,LARGE,US,2022-07-07,AFETR,,3541002,210556417,0 STARLINK-4203,1 53021U 22076AM  22232.33334491 -.00036266  00000-0 -25504-3 0  9993,2 53021  53.2154 162.8807 0002680  17.3736 270.7256 15.73198855  7398
2.0,GENERATED VIA SPACE-TRACK.ORG API,2022-08-20T09:06:13,18 SPCS,STARLINK-3905,2022-049AW,EARTH,TEME,UTC,SGP4,2022-08-20T08:00:01.000224,15.08831141,0.0001898,53.218,113.1642,50.2537,57.0015,0,U,52495,999,1669,-0.0016499,-0.00026444,0.0,6917.907,95.438,541.085,538.459,PAYLOAD,LARGE,US,2022-05-06,AFETR,,3540992,210556132,0 STARLINK-3905,1 52495U 22049AW  22232.33334491 -.00026444  00000-0 -16499-2 0  9996,2 52495  53.2180 113.1642 0001898  50.2537  57.0015 15.08831141 16694
2.0,GENERATED VIA SPACE-TRACK.ORG API,2022-08-20T09:06:13,18 SPCS,STARLINK-3531,2022-016K,EARTH,TEME,UTC,SGP4,2022-08-20T08:00:01.000224,15.76643747,0.0008582,53.221,326.3637,289.4087,34.6872,0,U,51723,999,2961,0.00026384,0.00042665,0.0,6718.095,91.333,345.725,334.194,PAYLOAD,LARGE,US,2022-02-21,AFETR,,3540989,210556085,0 STARLINK-3531,1 51723U 22016K   22232.33334491  .00042665  00000-0  26384-3 0  9999,2 51723  53.2210 326.3637 0008582 289.4087  34.6872 15.76643747 29612
2.0,GENERATED VIA SPACE-TRACK.ORG API,2022-08-20T09:16:12,18 SPCS,STARLINK-4287,2022-076AL,EARTH,TEME,UTC,SGP4,2022-08-20T08:00:01.000224,15.73171077,0.0001944,53.217,162.8881,27.8574,256.646,0,U,53020,999,739,0.00021062,0.00029005,0.0,6727.978,91.535,351.151,348.535,PAYLOAD,LARGE,US,2022-07-07,AFETR,,3541002,210556559,0 STARLINK-4287,1 53020U 22076AL  22232.33334491  .00029005  00000-0  21062-3 0  9998,2 53020  53.2170 162.8881 0001944  27.8574 256.6460 15.73171077  7392
2.0,GENERATED VIA SPACE-TRACK.ORG API,2022-08-20T09:06:13,18 SPCS,STARLINK-3857,2022-049AV,EARTH,TEME,UTC,SGP4,2022-08-20T08:00:01.000224,15.08844712,0.0001756,53.2213,113.1678,47.3798,139.903,0,U,52494,999,1669,-0.0038635,-0.00061261,0.0,6917.866,95.437,540.946,538.516,PAYLOAD,LARGE,US,2022-05-06,AFETR,,3540992,210556134,0 STARLINK-3857,1 52494U 22049AV  22232.33334491 -.00061261  00000-0 -38635-2 0  9997,2 52494  53.2213 113.1678 0001756  47.3798 139.9030 15.08844712 16693
